{
  "type": "FeatureCollection",
  "features": [
    {
      "type": "Feature",
      "properties": {
        "norad_id": 32393,
        "name": "COSMOS 2434 (721)",
        "group": "gnss",
        "lat": -32.74365858777921,
        "lon": 36.05643885771583,
        "alt_km": 19143.594722228285,
        "timestamp": "2025-12-18T04:58:34.819637+00:00",
        "meta_object_name": "COSMOS 2434 (721)",
        "meta_object_id": "2007-065A",
        "meta_epoch": "2025-12-15T08:26:38.759136",
        "meta_mean_motion": 2.13101367,
        "meta_eccentricity": 0.00044341,
        "meta_inclination": 64.3148,
        "meta_ra_of_asc_node": 198.1152,
        "meta_arg_of_pericenter": 71.4602,
        "meta_mean_anomaly": 114.7825,
        "meta_ephemeris_type": 0,
        "meta_classification_type": "U",
        "meta_norad_cat_id": 32393,
        "meta_element_set_no": 999,
        "meta_rev_at_epoch": 13985,
        "meta_bstar": 0,
        "meta_mean_motion_dot": 1.05e-06,
        "meta_mean_motion_ddot": 0,
        "tle_line1": "1 32393U 07065A   25349.35183749  .00000105  00000+0  00000+0 0  9995",
        "tle_line2": "2 32393  64.3148 198.1152 0004434  71.4602 114.7825  2.13101367139858"
      },
      "geometry": {
        "type": "Point",
        "coordinates": [
          36.05643885771583,
          -32.74365858777921
        ]
      }
    },
    {
      "type": "Feature",
      "properties": {
        "norad_id": 32395,
        "name": "COSMOS 2436 (723)",
        "group": "gnss",
        "lat": -9.190930084974786,
        "lon": -166.37265595973264,
        "alt_km": 19088.990627612122,
        "timestamp": "2025-12-18T04:58:34.819648+00:00",
        "meta_object_name": "COSMOS 2436 (723)",
        "meta_object_id": "2007-065C",
        "meta_epoch": "2025-12-16T08:11:52.503360",
        "meta_mean_motion": 2.13100112,
        "meta_eccentricity": 0.00177699,
        "meta_inclination": 64.3235,
        "meta_ra_of_asc_node": 198.1521,
        "meta_arg_of_pericenter": 9.2217,
        "meta_mean_anomaly": 349.3751,
        "meta_ephemeris_type": 0,
        "meta_classification_type": "U",
        "meta_norad_cat_id": 32395,
        "meta_element_set_no": 999,
        "meta_rev_at_epoch": 13982,
        "meta_bstar": 0,
        "meta_mean_motion_dot": 1.1e-06,
        "meta_mean_motion_ddot": 0,
        "tle_line1": "1 32395U 07065C   25350.34157990  .00000110  00000+0  00000+0 0  9993",
        "tle_line2": "2 32395  64.3235 198.1521 0017769   9.2217 349.3751  2.13100112139821"
      },
      "geometry": {
        "type": "Point",
        "coordinates": [
          -166.37265595973264,
          -9.190930084974786
        ]
      }
    },
    {
      "type": "Feature",
      "properties": {
        "norad_id": 32711,
        "name": "GPS BIIRM-6 (PRN 07)",
        "group": "gnss",
        "lat": 27.55439748035382,
        "lon": 179.04005597681964,
        "alt_km": 20640.03441163712,
        "timestamp": "2025-12-18T04:58:34.819659+00:00",
        "meta_object_name": "GPS BIIRM-6 (PRN 07)",
        "meta_object_id": "2008-012A",
        "meta_epoch": "2025-12-17T15:49:41.765088",
        "meta_mean_motion": 2.00565872,
        "meta_eccentricity": 0.02026437,
        "meta_inclination": 54.4776,
        "meta_ra_of_asc_node": 157.1765,
        "meta_arg_of_pericenter": 245.005,
        "meta_mean_anomaly": 112.8804,
        "meta_ephemeris_type": 0,
        "meta_classification_type": "U",
        "meta_norad_cat_id": 32711,
        "meta_element_set_no": 999,
        "meta_rev_at_epoch": 13011,
        "meta_bstar": 0,
        "meta_mean_motion_dot": 7.7e-07,
        "meta_mean_motion_ddot": 0,
        "tle_line1": "1 32711U 08012A   25351.65951117  .00000077  00000+0  00000+0 0  9998",
        "tle_line2": "2 32711  54.4776 157.1765 0202643 245.0050 112.8804  2.00565872130119"
      },
      "geometry": {
        "type": "Point",
        "coordinates": [
          179.04005597681964,
          27.55439748035382
        ]
      }
    },
    {
      "type": "Feature",
      "properties": {
        "norad_id": 35752,
        "name": "GPS BIIRM-8 (PRN 05)",
        "group": "gnss",
        "lat": 41.56097059485239,
        "lon": 71.16214023186676,
        "alt_km": 20056.214538730626,
        "timestamp": "2025-12-18T04:58:34.819671+00:00",
        "meta_object_name": "GPS BIIRM-8 (PRN 05)",
        "meta_object_id": "2009-043A",
        "meta_epoch": "2025-12-15T22:20:02.106816",
        "meta_mean_motion": 2.00565586,
        "meta_eccentricity": 0.00517182,
        "meta_inclination": 56.0932,
        "meta_ra_of_asc_node": 34.6571,
        "meta_arg_of_pericenter": 81.8462,
        "meta_mean_anomaly": 127.6063,
        "meta_ephemeris_type": 0,
        "meta_classification_type": "U",
        "meta_norad_cat_id": 35752,
        "meta_element_set_no": 999,
        "meta_rev_at_epoch": 11968,
        "meta_bstar": 0,
        "meta_mean_motion_dot": -8.6e-07,
        "meta_mean_motion_ddot": 0,
        "tle_line1": "1 35752U 09043A   25349.93057994 -.00000086  00000+0  00000+0 0  9990",
        "tle_line2": "2 35752  56.0932  34.6571 0051718  81.8462 127.6063  2.00565586119683"
      },
      "geometry": {
        "type": "Point",
        "coordinates": [
          71.16214023186676,
          41.56097059485239
        ]
      }
    },
    {
      "type": "Feature",
      "properties": {
        "norad_id": 36111,
        "name": "COSMOS 2456 (730)",
        "group": "gnss",
        "lat": 12.668032236353815,
        "lon": 83.19698178572494,
        "alt_km": 19126.702805583063,
        "timestamp": "2025-12-18T04:58:34.819682+00:00",
        "meta_object_name": "COSMOS 2456 (730)",
        "meta_object_id": "2009-070A",
        "meta_epoch": "2025-12-17T17:12:45.215136",
        "meta_mean_motion": 2.13103683,
        "meta_eccentricity": 0.00031115,
        "meta_inclination": 64.9035,
        "meta_ra_of_asc_node": 77.1675,
        "meta_arg_of_pericenter": 298.0972,
        "meta_mean_anomaly": 59.8689,
        "meta_ephemeris_type": 0,
        "meta_classification_type": "U",
        "meta_norad_cat_id": 36111,
        "meta_element_set_no": 999,
        "meta_rev_at_epoch": 12455,
        "meta_bstar": 0,
        "meta_mean_motion_dot": -4.7e-07,
        "meta_mean_motion_ddot": 0,
        "tle_line1": "1 36111U 09070A   25351.71718999 -.00000047  00000+0  00000+0 0  9995",
        "tle_line2": "2 36111  64.9035  77.1675 0003111 298.0972  59.8689  2.13103683124556"
      },
      "geometry": {
        "type": "Point",
        "coordinates": [
          83.19698178572494,
          12.668032236353815
        ]
      }
    },
    {
      "type": "Feature",
      "properties": {
        "norad_id": 36112,
        "name": "COSMOS 2457 (733)",
        "group": "gnss",
        "lat": 32.939564849294584,
        "lon": -120.64901821818705,
        "alt_km": 19114.925781551072,
        "timestamp": "2025-12-18T04:58:34.819694+00:00",
        "meta_object_name": "COSMOS 2457 (733)",
        "meta_object_id": "2009-070B",
        "meta_epoch": "2025-12-17T13:03:42.379200",
        "meta_mean_motion": 2.13100979,
        "meta_eccentricity": 0.00046214,
        "meta_inclination": 64.8886,
        "meta_ra_of_asc_node": 77.0209,
        "meta_arg_of_pericenter": 159.9242,
        "meta_mean_anomaly": 194.4541,
        "meta_ephemeris_type": 0,
        "meta_classification_type": "U",
        "meta_norad_cat_id": 36112,
        "meta_element_set_no": 999,
        "meta_rev_at_epoch": 12455,
        "meta_bstar": 0,
        "meta_mean_motion_dot": -4.8e-07,
        "meta_mean_motion_ddot": 0,
        "tle_line1": "1 36112U 09070B   25351.54424050 -.00000048  00000+0  00000+0 0  9990",
        "tle_line2": "2 36112  64.8886  77.0209 0004621 159.9242 194.4541  2.13100979124552"
      },
      "geometry": {
        "type": "Point",
        "coordinates": [
          -120.64901821818705,
          32.939564849294584
        ]
      }
    },
    {
      "type": "Feature",
      "properties": {
        "norad_id": 36402,
        "name": "COSMOS 2460 (732)",
        "group": "gnss",
        "lat": 33.47723886897999,
        "lon": 123.04738906856666,
        "alt_km": 19130.360953879583,
        "timestamp": "2025-12-18T04:58:34.819706+00:00",
        "meta_object_name": "COSMOS 2460 (732)",
        "meta_object_id": "2010-007C",
        "meta_epoch": "2025-12-15T05:47:00.728160",
        "meta_mean_motion": 2.13106127,
        "meta_eccentricity": 0.00026664,
        "meta_inclination": 65.5278,
        "meta_ra_of_asc_node": 320.6882,
        "meta_arg_of_pericenter": 275.3459,
        "meta_mean_anomaly": 111.58,
        "meta_ephemeris_type": 0,
        "meta_classification_type": "U",
        "meta_norad_cat_id": 36402,
        "meta_element_set_no": 999,
        "meta_rev_at_epoch": 12281,
        "meta_bstar": 0,
        "meta_mean_motion_dot": -6.7e-07,
        "meta_mean_motion_ddot": 0,
        "tle_line1": "1 36402U 10007C   25349.24098065 -.00000067  00000+0  00000+0 0  9992",
        "tle_line2": "2 36402  65.5278 320.6882 0002666 275.3459 111.5800  2.13106127122817"
      },
      "geometry": {
        "type": "Point",
        "coordinates": [
          123.04738906856666,
          33.47723886897999
        ]
      }
    }
  ]
}